ZACUBE-2                
1 43907U 18111AH  22287.52468868  .00016203  00000+0  56335-3 0  9999
2 43907  97.1708 169.6060 0020033  21.9549  61.0994 15.29603799211489
LUME 1                  
1 43908U 18111AJ  22287.23952377  .00018230  00000+0  57534-3 0  9995
2 43908  97.1713 171.3523 0017997  16.7283 343.4549 15.32741297211575
AOBA VELOX-IV           
1 43940U 19003J   22287.05161653  .00046724  00000+0  10205-2 0  9993
2 43940  97.1156 319.7931 0016747  78.7963 281.5167 15.43903009208384
MOVE-IIB                
1 44398U 19038N   22287.59684923  .00029890  00000+0  13157-2 0  9992
2 44398  97.6417 258.3186 0022598  77.1560 283.2167 15.21567240181135
SONATE                  
1 44400U 19038Q   22287.60069150  .00010603  00000+0  55484-3 0  9999
2 44400  97.6493 256.8022 0024917  82.1477 278.2565 15.15753581180970
LUCKY-7                 
1 44406U 19038W   22286.66200693  .00010662  00000+0  54038-3 0  9998
2 44406  97.6536 256.5140 0024350  83.6353 276.7652 15.16888649180876
BEESAT 9                
1 44412U 19038AC  22286.66914169  .00015950  00000+0  76466-3 0  9999
2 44412  97.6498 257.0354 0021906  86.5069 273.8669 15.18779867180625
JAISAT-1                
1 44419U 19038F   22287.47430389  .00018277  00000+0  86349-3 0  9999
2 44419  97.6504 258.7799 0020806  81.4530 278.9060 15.19278272181117
DUCHIFAT-3              
1 44854U 19089C   22286.88332547  .00008113  00000+0  61385-3 0  9990
2 44854  36.9660 117.8767 0006366  96.4548 263.6763 15.01912146155746
EYESAT-NANO             
1 44877U 19092E   22287.45614921  .00021740  00000+0  87042-3 0  9991
2 44877  97.4637 111.1902 0010134 303.0493  56.9771 15.25029944156484
ORBITAL FACTORY 2 (OF-2)
1 45113U 19071C   22287.45407599  .00070828  00000+0  11279-2 0  9992
2 45113  51.6352 191.3079 0008094 232.2386 127.7871 15.52579798151812
M2 PATHFINDER           
1 45727U 20037E   22287.38126682  .00003205  00000+0  31846-3 0  9998
2 45727  97.7432 100.7518 0013000   7.0236 353.1195 14.92351751124566
NETSAT-4                
1 46504U 20068U   22287.35658863  .00007264  00000+0  52767-3 0  9998
2 46504  97.7281 227.0026 0009703 285.3392  74.6730 15.04130661111912
NETSAT-3                
1 46505U 20068V   22287.57511645  .00007687  00000+0  55886-3 0  9993
2 46505  97.7263 227.1224 0009239 292.2618  67.7610 15.04082934111959
NETSAT-1                
1 46506U 20068W   22287.52962318  .00006784  00000+0  49489-3 0  9995
2 46506  97.7273 226.9935 0008098 313.2619  46.7930 15.04009535111941
NETSAT-2                
1 46507U 20068X   22287.34092060  .00006948  00000+0  50680-3 0  9991
2 46507  97.7279 226.7976 0007865 325.2490  34.8218 15.04004353111863
SAI-1 NANOCONNECT-2     
1 47701U 21015C   22287.45638431  .00024814  00000+0  85141-3 0  9993
2 47701  97.4134   3.9415 0011084  38.5613 321.6418 15.30087657 90399
WILDTRACKCUBE-SIMBA     
1 47941U 21022K   22287.63829817  .00007990  00000+0  51917-3 0  9997
2 47941  97.5164 184.5850 0022704  98.3808 261.9910 15.08067789 85957
BEESAT-6                
1 47957U 21022AB  22287.49552140  .00013982  00000+0  85539-3 0  9995
2 47957  97.5117 184.7912 0021730  97.6582  77.0276 15.10140423 85751
SMOG-1                  
1 47964U 21022AJ  22287.46739168  .00015040  00000+0  88298-3 0  9999
2 47964  97.5157 186.0822 0020070  87.5325 272.8202 15.11648910 84856
MMSATS-1                
1 47976U 98067SJ  22287.56143438  .00055085  00000+0  54118-3 0  9992
2 47976  51.6373  84.4149 0000386 179.4197 296.1389 15.65479576 88879
BCCSAT-1                
1 48041U 21022AK  22287.45741037  .00013170  00000+0  79644-3 0  9990
2 48041  97.5162 185.5391 0017004  86.3301 273.9872 15.10654827 84799
BEESAT-5                
1 48083U 21022AM  22287.47280936  .00017363  00000+0  10508-2 0  9995
2 48083  97.5164 184.7904 0021476 103.4061  71.2198 15.10491286 84888
BEESAT-7                
1 48084U 21022AN  22287.48479814  .00015582  00000+0  94825-3 0  9998
2 48084  97.5121 184.8011 0022383 101.8983  72.5773 15.10295335 84470
BEESAT-8                
1 48085U 21022AP  22287.49493159  .00011521  00000+0  70895-3 0  9998
2 48085  97.5122 184.7878 0020886  97.5559  77.0983 15.09992543 85037
LEDSAT                  
1 49069U 21073D   22287.47195911  .00007715  00000+0  48043-3 0  9990
2 49069  97.5136 358.0007 0025246 245.2526 114.6075 15.09592116 63786
HSU-SAT1                
1 53462U 98067UB  22287.47140596  .00075643  00000+0  10666-2 0  9992
2 53462  51.6377 104.2985 0006031 349.0037  11.0822 15.55904762  9812
FUTABA                  
1 53463U 98067UC  22286.94148303  .00073999  00000+0  10084-2 0  9994
2 53463  51.6373 106.7580 0005913 341.0757  19.0014 15.56836384  9733
TUMNANOSAT              
1 53464U 98067UD  22287.50323521  .00112205  00000+0  14575-2 0  9998
2 53464  51.6372 103.7605 0006149 338.4614  21.6119 15.57929165  9828
BEIJING 1               
1 28890U 05043A   22287.53407834  .00000518  00000+0  11366-3 0  9997
2 28890  98.1335  47.8427 0015613 157.4549 202.7344 14.61515133904534
HJ-1A                   
1 33320U 08041A   22287.51410373  .00000851  00000+0  12449-3 0  9995
2 33320  97.6692 314.9428 0020331 201.2831 158.7539 14.77947046759973
HJ-1B                   
1 33321U 08041B   22287.46555935  .00001822  00000+0  25758-3 0  9990
2 33321  97.6854 318.7011 0033097 221.5647 138.3048 14.77941516759961
YAOGAN 4                
1 33446U 08061A   22287.37262128  .00001054  00000+0  15440-3 0  9993
2 33446  97.8253 223.9283 0017625 107.4752 252.8387 14.77513412747156
DEIMOS-1                
1 35681U 09041A   22287.48309341  .00000745  00000+0  12559-3 0  9990
2 35681  97.7008 132.3805 0001513 146.6672 213.4628 14.72138723709280
UK-DMC 2                
1 35683U 09041C   22287.42339806  .00001240  00000+0  20705-3 0  9998
2 35683  97.7077  94.1323 0000983  85.4450 274.6872 14.71539124709001
RISAT 1                 
1 38248U 12017A   22287.50073157  .00005589  00000+0  32299-3 0  9999
2 38248  97.5527 297.6079 0003497 182.0547 178.0670 15.12692259576810
DMC3-FM1                
1 40715U 15032A   22287.48668038  .00001011  00000+0  13319-3 0  9994
2 40715  97.8281 171.8610 0006996 123.0897 237.0970 14.82230711390928
DMC3-FM2                
1 40716U 15032B   22287.50979456  .00001015  00000+0  13372-3 0  9990
2 40716  97.8323 172.5868 0009022 127.8872 232.3134 14.82223368390938
DMC3-FM3                
1 40717U 15032C   22287.46315094  .00001011  00000+0  13310-3 0  9996
2 40717  97.8359 173.5050 0010889 127.2905 232.9291 14.82250990390926
NOAA 15                 
1 25338U 98030A   22287.47828262  .00000167  00000+0  87800-4 0  9991
2 25338  98.6354 315.4109 0009512 314.8050  45.2356 14.26182374269986
DMSP 5D-3 F15 (USA 147) 
1 25991U 99067A   22287.51235836  .00000183  00000+0  11493-3 0  9993
2 25991  99.0625 281.1757 0009562 206.6725 322.3095 14.16582644180622
DMSP 5D-3 F16 (USA 172) 
1 28054U 03048A   22287.50999309  .00000159  00000+0  10841-3 0  9990
2 28054  98.9991 278.9882 0007208 349.1926 120.3573 14.13694035979856
NOAA 18                 
1 28654U 05018A   22287.47138654  .00000235  00000+0  15038-3 0  9997
2 28654  98.9385 357.7544 0014069 359.3356   0.7794 14.12790029896878
METEOSAT-9 (MSG-2)      
1 28912U 05049B   22287.47181282  .00000128  00000+0  00000+0 0  9993
2 28912   6.2844  65.4917 0001893 184.5517 348.5582  1.00267691 61589
EWS-G1 (GOES 13)        
1 29155U 06018A   22287.53440807  .00000036  00000+0  00000+0 0  9996
2 29155   0.8779  95.0060 0006666 125.8895  56.0503  1.00270437 29922
DMSP 5D-3 F17 (USA 191) 
1 29522U 06050A   22287.51276463  .00000164  00000+0  10889-3 0  9995
2 29522  98.7657 300.3306 0008807 283.9871  76.0323 14.14124022822734
FENGYUN 3A              
1 32958U 08026A   22287.51451659  .00000182  00000+0  10778-3 0  9996
2 32958  98.5183 245.3590 0009617  44.1731 316.0212 14.18749247745103
FENGYUN 2E              
1 33463U 08066A   22287.60096005 -.00000202  00000+0  00000+0 0  9999
2 33463   6.1671  64.5689 0000809  52.9779 208.5180  1.00270863 50631
NOAA 19                 
1 33591U 09005A   22287.48620677  .00000187  00000+0  12576-3 0  9995
2 33591  99.1370 324.0654 0013466 210.4113 149.6279 14.12622305704991
GOES 14                 
1 35491U 09033A   22287.54355001 -.00000095  00000+0  00000+0 0  9994
2 35491   0.3267 266.6038 0018287 310.3590 257.4716  1.00273556 48654
METEOR-M 1              
1 35865U 09049A   22287.49195087  .00000176  00000+0  97990-4 0  9994
2 35865  98.5440 254.2033 0001320 218.9639 141.1444 14.22366416678467
DMSP 5D-3 F18 (USA 210) 
1 35951U 09057A   22287.53408837  .00000243  00000+0  15192-3 0  9992
2 35951  98.7369 264.0608 0012176 105.4964 254.7554 14.13570121669939
GOES 15                 
1 36411U 10008A   22287.56873771  .00000055  00000+0  00000+0 0  9997
2 36411   0.2866 278.4332 0004113 261.3973 279.6697  1.00269277 46211
COMS 1                  
1 36744U 10032A   22287.56554314 -.00000345  00000+0  00000+0 0  9995
2 36744   1.3808  91.8904 0001131 135.3432 127.6092  1.00270630 37639
FENGYUN 3B              
1 37214U 10059A   22287.41961467  .00000066  00000+0  58458-4 0  9996
2 37214  99.0947 295.5184 0022566  22.2276 337.9877 14.14269164617773
SUOMI NPP               
1 37849U 11061A   22287.54065366  .00000133  00000+0  83918-4 0  9995
2 37849  98.7404 224.4743 0001017  79.8668  30.3568 14.19551422568091
FENGYUN 2F              
1 38049U 12002A   22287.55570108 -.00000357  00000+0  00000+0 0  9995
2 38049   4.0788  78.7136 0000493 331.0231 285.5424  1.00269170 39428
METEOSAT-10 (MSG-3)     
1 38552U 12035B   22287.40951897  .00000060  00000+0  00000+0 0  9992
2 38552   1.7097  47.2592 0001389 157.5428 334.7590  1.00273625 37402
METOP-B                 
1 38771U 12049A   22287.52721671  .00000146  00000+0  86876-4 0  9993
2 38771  98.7161 345.5505 0001609  76.3691  60.5774 14.21482474522651
